GLOBALSTAR M023         
1 25621U 99004A   24349.89771280  .00000073  00000+0  98236-3 0  9992
2 25621  52.0103 254.6055 0010798  79.2232   9.5692 12.62489174192452
GLOBALSTAR M040         
1 25622U 99004B   24349.78917247 -.00000009  00000+0  52931-3 0  9998
2 25622  51.9915 258.8142 0001384  26.8067   8.8994 12.61993953191977
GLOBALSTAR M036         
1 25623U 99004C   24348.57759763 -.00000023  00000+0  86516-3 0  9994
2 25623  51.9990   9.5431 0011014  58.3516 113.3175 11.86583404156935
GLOBALSTAR M038         
1 25624U 99004D   24349.75895319 -.00000048  00000+0  38687-3 0  9997
2 25624  51.9963 242.7010 0002742  42.1535 356.1415 12.32515866179635
GLOBALSTAR M022         
1 25649U 99012A   24349.64576878 -.00000049  00000+0  45038-3 0  9996
2 25649  52.0053  72.5660 0002967 156.2742 352.3917 12.02493197154176
GLOBALSTAR M041         
1 25650U 99012B   24348.62057759 -.00000051  00000+0  44281-3 0  9999
2 25650  52.0035 311.1496 0002237 324.7557  35.3131 11.96663081156310
GLOBALSTAR M046         
1 25651U 99012C   24348.49048052 -.00000110  00000+0 -23821-3 0  9995
2 25651  52.0077  32.6204 0002140 231.3874 275.4700 12.09404284161540
GLOBALSTAR M037         
1 25652U 99012D   24348.53471189 -.00000014  00000+0  50096-3 0  9998
2 25652  52.0023  29.4394 0002324 135.4401  12.2109 12.62429157187880
